[{"OBJECT_NAME":"PLEIADES 1B","OBJECT_ID":"2012-068A","EPOCH":"2026-03-06T07:32:09.845376","MEAN_MOTION":14.58523666,"ECCENTRICITY":0.00016237,"INCLINATION":98.2023,"RA_OF_ASC_NODE":141.755,"ARG_OF_PERICENTER":88.8454,"MEAN_ANOMALY":271.2931,"EPHEMERIS_TYPE":0,"CLASSIFICATION_TYPE":"U","NORAD_CAT_ID":39019,"ELEMENT_SET_NO":999,"REV_AT_EPOCH":70585,"BSTAR":9.9585887e-5,"MEAN_MOTION_DOT":4.17e-6,"MEAN_MOTION_DDOT":0},{"OBJECT_NAME":"GOKTURK 2","OBJECT_ID":"2012-073A","EPOCH":"2026-03-06T06:32:30.232032","MEAN_MOTION":14.75429902,"ECCENTRICITY":0.00011762,"INCLINATION":97.688,"RA_OF_ASC_NODE":267.8196,"ARG_OF_PERICENTER":56.823,"MEAN_ANOMALY":303.3093,"EPHEMERIS_TYPE":0,"CLASSIFICATION_TYPE":"U","NORAD_CAT_ID":39030,"ELEMENT_SET_NO":999,"REV_AT_EPOCH":70933,"BSTAR":0.00014884831,"MEAN_MOTION_DOT":9.64e-6,"MEAN_MOTION_DDOT":0},{"OBJECT_NAME":"LANDSAT 8","OBJECT_ID":"2013-008A","EPOCH":"2026-03-06T05:26:48.346944","MEAN_MOTION":14.57127314,"ECCENTRICITY":0.00012216,"INCLINATION":98.1924,"RA_OF_ASC_NODE":137.0093,"ARG_OF_PERICENTER":91.8633,"MEAN_ANOMALY":268.2705,"EPHEMERIS_TYPE":0,"CLASSIFICATION_TYPE":"U","NORAD_CAT_ID":39084,"ELEMENT_SET_NO":999,"REV_AT_EPOCH":68290,"BSTAR":0.00012898689,"MEAN_MOTION_DOT":5.36e-6,"MEAN_MOTION_DDOT":0},{"OBJECT_NAME":"SARAL","OBJECT_ID":"2013-009A","EPOCH":"2026-03-06T05:58:49.439712","MEAN_MOTION":14.32827177,"ECCENTRICITY":0.00012869,"INCLINATION":98.5552,"RA_OF_ASC_NODE":253.1084,"ARG_OF_PERICENTER":191.4119,"MEAN_ANOMALY":168.7036,"EPHEMERIS_TYPE":0,"CLASSIFICATION_TYPE":"U","NORAD_CAT_ID":39086,"ELEMENT_SET_NO":999,"REV_AT_EPOCH":68086,"BSTAR":8.1432325e-5,"MEAN_MOTION_DOT":1.78e-6,"MEAN_MOTION_DDOT":0},{"OBJECT_NAME":"GAOFEN-1","OBJECT_ID":"2013-018A","EPOCH":"2026-03-06T07:51:37.548288","MEAN_MOTION":14.76539983,"ECCENTRICITY":0.00161974,"INCLINATION":97.9184,"RA_OF_ASC_NODE":139.4492,"ARG_OF_PERICENTER":235.8891,"MEAN_ANOMALY":124.0783,"EPHEMERIS_TYPE":0,"CLASSIFICATION_TYPE":"U","NORAD_CAT_ID":39150,"ELEMENT_SET_NO":999,"REV_AT_EPOCH":69306,"BSTAR":0.00013515584,"MEAN_MOTION_DOT":8.93e-6,"MEAN_MOTION_DDOT":0},{"OBJECT_NAME":"VNREDSAT 1","OBJECT_ID":"2013-021B","EPOCH":"2026-03-06T06:57:07.157088","MEAN_MOTION":14.65068075,"ECCENTRICITY":0.00016039,"INCLINATION":97.922,"RA_OF_ASC_NODE":122.5848,"ARG_OF_PERICENTER":88.8385,"MEAN_ANOMALY":271.3002,"EPHEMERIS_TYPE":0,"CLASSIFICATION_TYPE":"U","NORAD_CAT_ID":39160,"ELEMENT_SET_NO":999,"REV_AT_EPOCH":68522,"BSTAR":0.00017857109,"MEAN_MOTION_DOT":9.13e-6,"MEAN_MOTION_DDOT":0},{"OBJECT_NAME":"ARIRANG-5 (KOMPSAT-5)","OBJECT_ID":"2013-042A","EPOCH":"2026-03-06T06:39:48.895200","MEAN_MOTION":15.04526125,"ECCENTRICITY":0.00038455,"INCLINATION":97.6178,"RA_OF_ASC_NODE":253.408,"ARG_OF_PERICENTER":120.9002,"MEAN_ANOMALY":239.2602,"EPHEMERIS_TYPE":0,"CLASSIFICATION_TYPE":"U","NORAD_CAT_ID":39227,"ELEMENT_SET_NO":999,"REV_AT_EPOCH":68838,"BSTAR":0.00014032579,"MEAN_MOTION_DOT":1.905e-5,"MEAN_MOTION_DDOT":0},{"OBJECT_NAME":"SKYSAT-A","OBJECT_ID":"2013-066C","EPOCH":"2026-03-06T04:40:43.377600","MEAN_MOTION":15.12322561,"ECCENTRICITY":0.00203542,"INCLINATION":97.3957,"RA_OF_ASC_NODE":117.8467,"ARG_OF_PERICENTER":313.4986,"MEAN_ANOMALY":46.4552,"EPHEMERIS_TYPE":0,"CLASSIFICATION_TYPE":"U","NORAD_CAT_ID":39418,"ELEMENT_SET_NO":999,"REV_AT_EPOCH":67291,"BSTAR":0.00023627622,"MEAN_MOTION_DOT":4.049e-5,"MEAN_MOTION_DDOT":0},{"OBJECT_NAME":"DUBAISAT-2","OBJECT_ID":"2013-066D","EPOCH":"2026-03-06T06:37:12.825696","MEAN_MOTION":15.09311997,"ECCENTRICITY":0.00125703,"INCLINATION":97.4525,"RA_OF_ASC_NODE":58.2043,"ARG_OF_PERICENTER":34.7933,"MEAN_ANOMALY":325.4116,"EPHEMERIS_TYPE":0,"CLASSIFICATION_TYPE":"U","NORAD_CAT_ID":39419,"ELEMENT_SET_NO":999,"REV_AT_EPOCH":67086,"BSTAR":0.00045088253,"MEAN_MOTION_DOT":7.142e-5,"MEAN_MOTION_DDOT":0},{"OBJECT_NAME":"GPM-CORE","OBJECT_ID":"2014-009C","EPOCH":"2026-03-06T05:08:15.872640","MEAN_MOTION":15.44646426,"ECCENTRICITY":0.00124231,"INCLINATION":64.9728,"RA_OF_ASC_NODE":293.1301,"ARG_OF_PERICENTER":265.0003,"MEAN_ANOMALY":94.9719,"EPHEMERIS_TYPE":0,"CLASSIFICATION_TYPE":"U","NORAD_CAT_ID":39574,"ELEMENT_SET_NO":999,"REV_AT_EPOCH":68190,"BSTAR":0.00020061636,"MEAN_MOTION_DOT":9.178e-5,"MEAN_MOTION_DDOT":0},{"OBJECT_NAME":"SENTINEL-1A","OBJECT_ID":"2014-016A","EPOCH":"2026-03-06T07:18:42.647328","MEAN_MOTION":14.59198614,"ECCENTRICITY":0.00013411,"INCLINATION":98.1813,"RA_OF_ASC_NODE":74.3233,"ARG_OF_PERICENTER":83.7825,"MEAN_ANOMALY":276.3527,"EPHEMERIS_TYPE":0,"CLASSIFICATION_TYPE":"U","NORAD_CAT_ID":39634,"ELEMENT_SET_NO":999,"REV_AT_EPOCH":63501,"BSTAR":0.00010406886,"MEAN_MOTION_DOT":4.45e-6,"MEAN_MOTION_DDOT":0},{"OBJECT_NAME":"KAZEOSAT 1","OBJECT_ID":"2014-024A","EPOCH":"2026-03-06T07:56:29.637312","MEAN_MOTION":14.42033486,"ECCENTRICITY":0.00010581,"INCLINATION":98.3291,"RA_OF_ASC_NODE":140.3058,"ARG_OF_PERICENTER":83.0279,"MEAN_ANOMALY":277.1031,"EPHEMERIS_TYPE":0,"CLASSIFICATION_TYPE":"U","NORAD_CAT_ID":39731,"ELEMENT_SET_NO":999,"REV_AT_EPOCH":62373,"BSTAR":9.5736013e-5,"MEAN_MOTION_DOT":2.71e-6,"MEAN_MOTION_DDOT":0},{"OBJECT_NAME":"ALOS-2","OBJECT_ID":"2014-029A","EPOCH":"2026-03-06T06:28:13.643904","MEAN_MOTION":14.79486543,"ECCENTRICITY":0.00014076,"INCLINATION":97.9198,"RA_OF_ASC_NODE":163.9163,"ARG_OF_PERICENTER":97.6062,"MEAN_ANOMALY":262.531,"EPHEMERIS_TYPE":0,"CLASSIFICATION_TYPE":"U","NORAD_CAT_ID":39766,"ELEMENT_SET_NO":999,"REV_AT_EPOCH":63636,"BSTAR":0.00029010672,"MEAN_MOTION_DOT":2.117e-5,"MEAN_MOTION_DDOT":0},{"OBJECT_NAME":"KAZEOSAT 2","OBJECT_ID":"2014-033A","EPOCH":"2026-03-06T07:10:31.098720","MEAN_MOTION":14.85328279,"ECCENTRICITY":0.00074673,"INCLINATION":97.5481,"RA_OF_ASC_NODE":270.2973,"ARG_OF_PERICENTER":306.1154,"MEAN_ANOMALY":53.9371,"EPHEMERIS_TYPE":0,"CLASSIFICATION_TYPE":"U","NORAD_CAT_ID":40010,"ELEMENT_SET_NO":999,"REV_AT_EPOCH":63368,"BSTAR":5.609059e-5,"MEAN_MOTION_DOT":4.32e-6,"MEAN_MOTION_DDOT":0},{"OBJECT_NAME":"HODOYOSHI-4","OBJECT_ID":"2014-033B","EPOCH":"2026-03-06T06:45:54.910656","MEAN_MOTION":14.87828045,"ECCENTRICITY":0.0022299,"INCLINATION":97.5444,"RA_OF_ASC_NODE":255.0793,"ARG_OF_PERICENTER":288.1564,"MEAN_ANOMALY":71.7225,"EPHEMERIS_TYPE":0,"CLASSIFICATION_TYPE":"U","NORAD_CAT_ID":40011,"ELEMENT_SET_NO":999,"REV_AT_EPOCH":63350,"BSTAR":0.00018352385,"MEAN_MOTION_DOT":1.632e-5,"MEAN_MOTION_DDOT":0},{"OBJECT_NAME":"DEIMOS-2","OBJECT_ID":"2014-033D","EPOCH":"2026-03-06T06:41:10.797216","MEAN_MOTION":14.93392971,"ECCENTRICITY":0.00013658,"INCLINATION":97.5982,"RA_OF_ASC_NODE":303.3127,"ARG_OF_PERICENTER":59.1842,"MEAN_ANOMALY":300.9513,"EPHEMERIS_TYPE":0,"CLASSIFICATION_TYPE":"U","NORAD_CAT_ID":40013,"ELEMENT_SET_NO":999,"REV_AT_EPOCH":62236,"BSTAR":0.00027324301,"MEAN_MOTION_DOT":2.814e-5,"MEAN_MOTION_DDOT":0},{"OBJECT_NAME":"HODOYOSHI-3","OBJECT_ID":"2014-033F","EPOCH":"2026-03-06T04:15:03.144672","MEAN_MOTION":14.85125937,"ECCENTRICITY":0.00323614,"INCLINATION":97.6294,"RA_OF_ASC_NODE":232.4397,"ARG_OF_PERICENTER":336.0923,"MEAN_ANOMALY":23.8788,"EPHEMERIS_TYPE":0,"CLASSIFICATION_TYPE":"U","NORAD_CAT_ID":40015,"ELEMENT_SET_NO":999,"REV_AT_EPOCH":63233,"BSTAR":0.0002206898,"MEAN_MOTION_DOT":1.852e-5,"MEAN_MOTION_DDOT":0}]
