PLEIADES 1B             
1 39019U 12068A   26065.31400284  .00000417  00000+0  99586-4 0  9992
2 39019  98.2023 141.7550 0001623  88.8454 271.2931 14.58523666705856
GOKTURK 2               
1 39030U 12073A   26065.27257213  .00000964  00000+0  14885-3 0  9993
2 39030  97.6880 267.8196 0001176  56.8230 303.3093 14.75429902709339
LANDSAT 8               
1 39084U 13008A   26065.22694846  .00000536  00000+0  12899-3 0  9991
2 39084  98.1924 137.0093 0001221  91.8633 268.2705 14.57127314682908
SARAL                   
1 39086U 13009A   26065.24918333  .00000178  00000+0  81432-4 0  9998
2 39086  98.5552 253.1084 0001286 191.4119 168.7036 14.32827177680869
GAOFEN-1                
1 39150U 13018A   26065.32751792  .00000893  00000+0  13516-3 0  9994
2 39150  97.9184 139.4492 0016197 235.8891 124.0783 14.76539983693064
VNREDSAT 1              
1 39160U 13021B   26065.28966617  .00000913  00000+0  17857-3 0  9993
2 39160  97.9220 122.5848 0001603  88.8385 271.3002 14.65068075685220
ARIRANG-5 (KOMPSAT-5)   
1 39227U 13042A   26065.27764925  .00001905  00000+0  14033-3 0  9992
2 39227  97.6178 253.4080 0003845 120.9002 239.2602 15.04526125688387
SKYSAT-A                
1 39418U 13066C   26065.19494650  .00004049  00000+0  23628-3 0  9998
2 39418  97.3957 117.8467 0020354 313.4986  46.4552 15.12322561672918
DUBAISAT-2              
1 39419U 13066D   26065.27584289  .00007142  00000+0  45088-3 0  9997
2 39419  97.4525  58.2043 0012570  34.7933 325.4116 15.09311997670860
GPM-CORE                
1 39574U 14009C   26065.21407260  .00009178  00000+0  20062-3 0  9990
2 39574  64.9728 293.1301 0012423 265.0003  94.9719 15.44646426681908
SENTINEL-1A             
1 39634U 14016A   26065.30466027  .00000445  00000+0  10407-3 0  9991
2 39634  98.1813  74.3233 0001341  83.7825 276.3527 14.59198614635016
KAZEOSAT 1              
1 39731U 14024A   26065.33089858  .00000271  00000+0  95736-4 0  9990
2 39731  98.3291 140.3058 0001058  83.0279 277.1031 14.42033486623738
ALOS-2                  
1 39766U 14029A   26065.26960236  .00002117  00000+0  29011-3 0  9996
2 39766  97.9198 163.9163 0001407  97.6062 262.5310 14.79486543636361
KAZEOSAT 2              
1 40010U 14033A   26065.29897105  .00000432  00000+0  56091-4 0  9999
2 40010  97.5481 270.2973 0007467 306.1154  53.9371 14.85328279633688
HODOYOSHI-4             
1 40011U 14033B   26065.28188554  .00001632  00000+0  18352-3 0  9990
2 40011  97.5444 255.0793 0022299 288.1564  71.7225 14.87828045633508
DEIMOS-2                
1 40013U 14033D   26065.27859719  .00002814  00000+0  27324-3 0  9991
2 40013  97.5982 303.3127 0001365  59.1842 300.9513 14.93392971622361
HODOYOSHI-3             
1 40015U 14033F   26065.17711973  .00001852  00000+0  22069-3 0  9993
2 40015  97.6294 232.4397 0032361 336.0923  23.8788 14.85125937632338
